{
  "type": "FeatureCollection",
  "features": [
    {
      "type": "Feature",
      "properties": {
        "norad_id": 39777,
        "name": "IRIDIUM 33 DEB",
        "group": "iridium-33-debris",
        "lat": NaN,
        "lon": NaN,
        "alt_km": NaN,
        "timestamp": "2025-12-01T03:12:44.648525+00:00",
        "meta": {
          "OBJECT_NAME": "IRIDIUM 33 DEB",
          "OBJECT_ID": "1997-051AAJ",
          "EPOCH": "2025-11-30T07:20:57.734592",
          "MEAN_MOTION": 14.55995837,
          "ECCENTRICITY": 0.0059506,
          "INCLINATION": 85.9623,
          "RA_OF_ASC_NODE": 181.0729,
          "ARG_OF_PERICENTER": 229.3315,
          "MEAN_ANOMALY": 130.2713,
          "EPHEMERIS_TYPE": 0,
          "CLASSIFICATION_TYPE": "U",
          "NORAD_CAT_ID": 39777,
          "ELEMENT_SET_NO": 999,
          "REV_AT_EPOCH": 60004,
          "BSTAR": 0.0024963402,
          "MEAN_MOTION_DOT": 0.00011275,
          "MEAN_MOTION_DDOT": 0
        }
      },
      "geometry": {
        "type": "Point",
        "coordinates": [
          NaN,
          NaN
        ]
      }
    },
    {
      "type": "Feature",
      "properties": {
        "norad_id": 39778,
        "name": "IRIDIUM 33 DEB",
        "group": "iridium-33-debris",
        "lat": NaN,
        "lon": NaN,
        "alt_km": NaN,
        "timestamp": "2025-12-01T03:12:44.648530+00:00",
        "meta": {
          "OBJECT_NAME": "IRIDIUM 33 DEB",
          "OBJECT_ID": "1997-051AAK",
          "EPOCH": "2025-11-28T22:39:52.364448",
          "MEAN_MOTION": 14.54103709,
          "ECCENTRICITY": 0.00090272,
          "INCLINATION": 86.3783,
          "RA_OF_ASC_NODE": 49.2122,
          "ARG_OF_PERICENTER": 80.8858,
          "MEAN_ANOMALY": 279.337,
          "EPHEMERIS_TYPE": 0,
          "CLASSIFICATION_TYPE": "U",
          "NORAD_CAT_ID": 39778,
          "ELEMENT_SET_NO": 999,
          "REV_AT_EPOCH": 60492,
          "BSTAR": 0.0010078213,
          "MEAN_MOTION_DOT": 4.278e-05,
          "MEAN_MOTION_DDOT": 0
        }
      },
      "geometry": {
        "type": "Point",
        "coordinates": [
          NaN,
          NaN
        ]
      }
    },
    {
      "type": "Feature",
      "properties": {
        "norad_id": 39781,
        "name": "IRIDIUM 33 DEB",
        "group": "iridium-33-debris",
        "lat": NaN,
        "lon": NaN,
        "alt_km": NaN,
        "timestamp": "2025-12-01T03:12:44.648536+00:00",
        "meta": {
          "OBJECT_NAME": "IRIDIUM 33 DEB",
          "OBJECT_ID": "1997-051AAN",
          "EPOCH": "2025-11-30T14:25:00.725376",
          "MEAN_MOTION": 14.20056399,
          "ECCENTRICITY": 0.0182345,
          "INCLINATION": 86.3693,
          "RA_OF_ASC_NODE": 262.979,
          "ARG_OF_PERICENTER": 311.3565,
          "MEAN_ANOMALY": 226.5322,
          "EPHEMERIS_TYPE": 0,
          "CLASSIFICATION_TYPE": "U",
          "NORAD_CAT_ID": 39781,
          "ELEMENT_SET_NO": 999,
          "REV_AT_EPOCH": 7934,
          "BSTAR": 0.0057558,
          "MEAN_MOTION_DOT": 0.0001451,
          "MEAN_MOTION_DDOT": 0
        }
      },
      "geometry": {
        "type": "Point",
        "coordinates": [
          NaN,
          NaN
        ]
      }
    },
    {
      "type": "Feature",
      "properties": {
        "norad_id": 39783,
        "name": "IRIDIUM 33 DEB",
        "group": "iridium-33-debris",
        "lat": NaN,
        "lon": NaN,
        "alt_km": NaN,
        "timestamp": "2025-12-01T03:12:44.648541+00:00",
        "meta": {
          "OBJECT_NAME": "IRIDIUM 33 DEB",
          "OBJECT_ID": "1997-051AAQ",
          "EPOCH": "2025-11-16T15:05:40.850592",
          "MEAN_MOTION": 15.19327111,
          "ECCENTRICITY": 0.00057535,
          "INCLINATION": 86.1306,
          "RA_OF_ASC_NODE": 268.8004,
          "ARG_OF_PERICENTER": 179.9151,
          "MEAN_ANOMALY": 1.8316,
          "EPHEMERIS_TYPE": 0,
          "CLASSIFICATION_TYPE": "U",
          "NORAD_CAT_ID": 39783,
          "ELEMENT_SET_NO": 999,
          "REV_AT_EPOCH": 60401,
          "BSTAR": 0.010398125,
          "MEAN_MOTION_DOT": 0.00226179,
          "MEAN_MOTION_DDOT": 0
        }
      },
      "geometry": {
        "type": "Point",
        "coordinates": [
          NaN,
          NaN
        ]
      }
    },
    {
      "type": "Feature",
      "properties": {
        "norad_id": 40996,
        "name": "IRIDIUM 33 DEB",
        "group": "iridium-33-debris",
        "lat": NaN,
        "lon": NaN,
        "alt_km": NaN,
        "timestamp": "2025-12-01T03:12:44.648546+00:00",
        "meta": {
          "OBJECT_NAME": "IRIDIUM 33 DEB",
          "OBJECT_ID": "1997-051ABJ",
          "EPOCH": "2025-11-30T01:58:04.991808",
          "MEAN_MOTION": 14.95095343,
          "ECCENTRICITY": 0.00120283,
          "INCLINATION": 86.3535,
          "RA_OF_ASC_NODE": 7.3184,
          "ARG_OF_PERICENTER": 99.499,
          "MEAN_ANOMALY": 290.4978,
          "EPHEMERIS_TYPE": 0,
          "CLASSIFICATION_TYPE": "U",
          "NORAD_CAT_ID": 40996,
          "ELEMENT_SET_NO": 999,
          "REV_AT_EPOCH": 62299,
          "BSTAR": 0.0030307541,
          "MEAN_MOTION_DOT": 0.00033396,
          "MEAN_MOTION_DDOT": 0
        }
      },
      "geometry": {
        "type": "Point",
        "coordinates": [
          NaN,
          NaN
        ]
      }
    },
    {
      "type": "Feature",
      "properties": {
        "norad_id": 40998,
        "name": "IRIDIUM 33 DEB",
        "group": "iridium-33-debris",
        "lat": NaN,
        "lon": NaN,
        "alt_km": NaN,
        "timestamp": "2025-12-01T03:12:44.648551+00:00",
        "meta": {
          "OBJECT_NAME": "IRIDIUM 33 DEB",
          "OBJECT_ID": "1997-051ABL",
          "EPOCH": "2025-11-26T13:54:44.256096",
          "MEAN_MOTION": 14.45011011,
          "ECCENTRICITY": 0.00091951,
          "INCLINATION": 86.3834,
          "RA_OF_ASC_NODE": 60.5577,
          "ARG_OF_PERICENTER": 126.7628,
          "MEAN_ANOMALY": 292.1903,
          "EPHEMERIS_TYPE": 0,
          "CLASSIFICATION_TYPE": "U",
          "NORAD_CAT_ID": 40998,
          "ELEMENT_SET_NO": 999,
          "REV_AT_EPOCH": 6448,
          "BSTAR": 0.00068392227,
          "MEAN_MOTION_DOT": 2.406e-05,
          "MEAN_MOTION_DDOT": 0
        }
      },
      "geometry": {
        "type": "Point",
        "coordinates": [
          NaN,
          NaN
        ]
      }
    },
    {
      "type": "Feature",
      "properties": {
        "norad_id": 46435,
        "name": "IRIDIUM 33 DEB",
        "group": "iridium-33-debris",
        "lat": NaN,
        "lon": NaN,
        "alt_km": NaN,
        "timestamp": "2025-12-01T03:12:44.648557+00:00",
        "meta": {
          "OBJECT_NAME": "IRIDIUM 33 DEB",
          "OBJECT_ID": "1997-051ABN",
          "EPOCH": "2025-11-29T09:55:50.719008",
          "MEAN_MOTION": 14.31124144,
          "ECCENTRICITY": 0.02140805,
          "INCLINATION": 86.2846,
          "RA_OF_ASC_NODE": 199.6762,
          "ARG_OF_PERICENTER": 319.3143,
          "MEAN_ANOMALY": 220.6231,
          "EPHEMERIS_TYPE": 0,
          "CLASSIFICATION_TYPE": "U",
          "NORAD_CAT_ID": 46435,
          "ELEMENT_SET_NO": 999,
          "REV_AT_EPOCH": 7725,
          "BSTAR": 0.006461235,
          "MEAN_MOTION_DOT": 0.0002197,
          "MEAN_MOTION_DDOT": 0
        }
      },
      "geometry": {
        "type": "Point",
        "coordinates": [
          NaN,
          NaN
        ]
      }
    },
    {
      "type": "Feature",
      "properties": {
        "norad_id": 46734,
        "name": "IRIDIUM 33 DEB",
        "group": "iridium-33-debris",
        "lat": NaN,
        "lon": NaN,
        "alt_km": NaN,
        "timestamp": "2025-12-01T03:12:44.648562+00:00",
        "meta": {
          "OBJECT_NAME": "IRIDIUM 33 DEB",
          "OBJECT_ID": "1997-051ABR",
          "EPOCH": "2025-11-30T20:36:46.303200",
          "MEAN_MOTION": 14.41769446,
          "ECCENTRICITY": 0.0039788,
          "INCLINATION": 86.2648,
          "RA_OF_ASC_NODE": 8.0789,
          "ARG_OF_PERICENTER": 15.2963,
          "MEAN_ANOMALY": 167.1696,
          "EPHEMERIS_TYPE": 0,
          "CLASSIFICATION_TYPE": "U",
          "NORAD_CAT_ID": 46734,
          "ELEMENT_SET_NO": 999,
          "REV_AT_EPOCH": 62839,
          "BSTAR": 0.00092163,
          "MEAN_MOTION_DOT": 3.055e-05,
          "MEAN_MOTION_DDOT": 0
        }
      },
      "geometry": {
        "type": "Point",
        "coordinates": [
          NaN,
          NaN
        ]
      }
    },
    {
      "type": "Feature",
      "properties": {
        "norad_id": 46965,
        "name": "IRIDIUM 33 DEB",
        "group": "iridium-33-debris",
        "lat": NaN,
        "lon": NaN,
        "alt_km": NaN,
        "timestamp": "2025-12-01T03:12:44.648567+00:00",
        "meta": {
          "OBJECT_NAME": "IRIDIUM 33 DEB",
          "OBJECT_ID": "1997-051ABX",
          "EPOCH": "2025-11-28T12:13:13.662624",
          "MEAN_MOTION": 14.60132141,
          "ECCENTRICITY": 0.00200477,
          "INCLINATION": 86.3356,
          "RA_OF_ASC_NODE": 347.008,
          "ARG_OF_PERICENTER": 21.5606,
          "MEAN_ANOMALY": 129.6154,
          "EPHEMERIS_TYPE": 0,
          "CLASSIFICATION_TYPE": "U",
          "NORAD_CAT_ID": 46965,
          "ELEMENT_SET_NO": 999,
          "REV_AT_EPOCH": 62060,
          "BSTAR": 0.00075262534,
          "MEAN_MOTION_DOT": 3.652e-05,
          "MEAN_MOTION_DDOT": 0
        }
      },
      "geometry": {
        "type": "Point",
        "coordinates": [
          NaN,
          NaN
        ]
      }
    }
  ]
}